[{"OBJECT_NAME":"FALCONSAT-6","OBJECT_ID":"2018-099BK","EPOCH":"2026-03-09T17:24:38.352096","MEAN_MOTION":15.26532865,"ECCENTRICITY":0.00143698,"INCLINATION":97.3865,"RA_OF_ASC_NODE":145.8165,"ARG_OF_PERICENTER":297.0944,"MEAN_ANOMALY":181.0714,"EPHEMERIS_TYPE":0,"CLASSIFICATION_TYPE":"U","NORAD_CAT_ID":43815,"ELEMENT_SET_NO":999,"REV_AT_EPOCH":39855,"BSTAR":0.00019476898,"MEAN_MOTION_DOT":5.029e-5,"MEAN_MOTION_DDOT":0},{"OBJECT_NAME":"STARLINK-31870","OBJECT_ID":"2024-093F","EPOCH":"2026-03-09T10:51:54.677952","MEAN_MOTION":15.27576119,"ECCENTRICITY":0.0002303,"INCLINATION":43.0031,"RA_OF_ASC_NODE":209.8538,"ARG_OF_PERICENTER":284.0443,"MEAN_ANOMALY":76.0153,"EPHEMERIS_TYPE":0,"CLASSIFICATION_TYPE":"U","NORAD_CAT_ID":59787,"ELEMENT_SET_NO":999,"REV_AT_EPOCH":10266,"BSTAR":0.00015361216,"MEAN_MOTION_DOT":3.967e-5,"MEAN_MOTION_DDOT":0}]
